<?xml version="1.0" encoding="UTF-8"?>
<kml xmlns="http://www.opengis.net/kml/2.2">
<Document>
<name>Ruta Optimizada - MARTIN - 26-09-2025</name>
<description>Ruta optimizada con time windows Tema: CLASICO</description>

<!-- Estilo para el depósito -->
<Style id="deposito">
    <IconStyle>
        <color>ff0000ff</color>
        <scale>1.3</scale>
        <Icon>
            <href>http://maps.google.com/mapfiles/kml/shapes/homegardenbusiness.png</href>
        </Icon>
    </IconStyle>
    <LabelStyle>
        <color>ff0000ff</color>
        <scale>1.2</scale>
    </LabelStyle>
</Style>

<!-- Estilo para clientes -->
<Style id="cliente">
    <IconStyle>
        <color>ffff0000</color>
        <scale>1.0</scale>
        <Icon>
            <href>http://maps.google.com/mapfiles/kml/shapes/truck.png</href>
        </Icon>
    </IconStyle>
    <LabelStyle>
        <color>ffff0000</color>
        <scale>1.0</scale>
    </LabelStyle>
</Style>
<!-- Estilo para cliente VIP -->
<Style id="clienteVip">
    <IconStyle>
        <color>ffff00ff</color>
        <scale>1.3</scale>
        <Icon>
            <href>http://maps.google.com/mapfiles/kml/shapes/star.png</href>
        </Icon>
    </IconStyle>
    <LabelStyle>
        <color>ffff00ff</color>
        <scale>1.0</scale>
    </LabelStyle>
</Style>
    
 <!-- Estilo para la ruta -->
<Style id="rutaLinea">
    <LineStyle>
        <color>ff0000ff</color>
        <width>4</width>
    </LineStyle>
</Style><Placemark>
    <name>DEPÓSITO - DEPOSITO</name>
    <description><![CDATA[<h3>?? PUNTO DE PARTIDA</h3><p><strong>Repartidor:</strong> MARTIN</p><p><strong>Fecha:</strong> 26-09-2025</p><p><em>?? INICIAR RECORRIDO AQUÍ</em></p>]]></description>
    <styleUrl>#deposito</styleUrl>
    <Point>
        <coordinates>-62.30073400,-38.72817300,0</coordinates>
    </Point>
</Placemark>
<Placemark>
    <name>1: CHEN JINYING(807)</name>
    <description><![CDATA[<h3>?? ENTREGA #1</h3><p><b>Cliente:</b> CHEN JINYING(807)</p><p><b>Repartidor:</b> MARTIN</p>]]></description>
    <styleUrl>#cliente</styleUrl>
    <Point>
        <coordinates>-62.29952112,-38.72422715,0</coordinates>
    </Point>
</Placemark>
<Placemark>
    <name>2: MANSILLA ANA(1058)</name>
    <description><![CDATA[<h3>?? ENTREGA #2</h3><p><b>Cliente:</b> MANSILLA ANA(1058)</p><p><b>Repartidor:</b> MARTIN</p>]]></description>
    <styleUrl>#cliente</styleUrl>
    <Point>
        <coordinates>-62.30821973,-38.72164036,0</coordinates>
    </Point>
</Placemark>
<Placemark>
    <name>3: BAEZA DEL CARMEN PINO NURIA(63)</name>
    <description><![CDATA[<h3>?? ENTREGA #3</h3><p><b>Cliente:</b> BAEZA DEL CARMEN PINO NURIA(63)</p><p><b>Repartidor:</b> MARTIN</p>]]></description>
    <styleUrl>#cliente</styleUrl>
    <Point>
        <coordinates>-62.31000469,-38.71958799,0</coordinates>
    </Point>
</Placemark>
<Placemark>
    <name>4: PEREZ JAILLITA FELICIDAD(272)</name>
    <description><![CDATA[<h3>?? ENTREGA #4</h3><p><b>Cliente:</b> PEREZ JAILLITA FELICIDAD(272)</p><p><b>Repartidor:</b> MARTIN</p>]]></description>
    <styleUrl>#cliente</styleUrl>
    <Point>
        <coordinates>-62.31078788,-38.71714895,0</coordinates>
    </Point>
</Placemark>
<Placemark>
    <name>5: MAO YINBING(157)</name>
    <description><![CDATA[<h3>?? ENTREGA #5</h3><p><b>Cliente:</b> MAO YINBING(157)</p><p><b>Repartidor:</b> MARTIN</p>]]></description>
    <styleUrl>#cliente</styleUrl>
    <Point>
        <coordinates>-62.31320035,-38.72075789,0</coordinates>
    </Point>
</Placemark>
<Placemark>
    <name>6: VILLEGAS JUAN(2502)</name>
    <description><![CDATA[<h3>?? ENTREGA #6</h3><p><b>Cliente:</b> VILLEGAS JUAN(2502)</p><p><b>Repartidor:</b> MARTIN</p>]]></description>
    <styleUrl>#cliente</styleUrl>
    <Point>
        <coordinates>-62.31821396,-38.71681964,0</coordinates>
    </Point>
</Placemark>
<Placemark>
    <name>7: CURUIL DANIEL(1272)</name>
    <description><![CDATA[<h3>?? ENTREGA #7</h3><p><b>Cliente:</b> CURUIL DANIEL(1272)</p><p><b>Repartidor:</b> MARTIN</p>]]></description>
    <styleUrl>#cliente</styleUrl>
    <Point>
        <coordinates>-62.32143187,-38.71347081,0</coordinates>
    </Point>
</Placemark>
<Placemark>
    <name>8: LIN MAOCHUN(256)</name>
    <description><![CDATA[<h3>?? ENTREGA #8</h3><p><b>Cliente:</b> LIN MAOCHUN(256)</p><p><b>Repartidor:</b> MARTIN</p>]]></description>
    <styleUrl>#cliente</styleUrl>
    <Point>
        <coordinates>-62.31016909,-38.70696816,0</coordinates>
    </Point>
</Placemark>
<Placemark>
    <name>9: HOLZMAN GUSTAVO(1276)</name>
    <description><![CDATA[<h3>?? ENTREGA #9</h3><p><b>Cliente:</b> HOLZMAN GUSTAVO(1276)</p><p><b>Repartidor:</b> MARTIN</p>]]></description>
    <styleUrl>#cliente</styleUrl>
    <Point>
        <coordinates>-62.30595300,-38.71058400,0</coordinates>
    </Point>
</Placemark>
<Placemark>
    <name>10: DIETRICH JOSE LUIS(117)</name>
    <description><![CDATA[<h3>?? ENTREGA #10</h3><p><b>Cliente:</b> DIETRICH JOSE LUIS(117)</p><p><b>Repartidor:</b> MARTIN</p>]]></description>
    <styleUrl>#cliente</styleUrl>
    <Point>
        <coordinates>-62.30317176,-38.71042227,0</coordinates>
    </Point>
</Placemark>
<Placemark>
    <name>11: CASTRO ROCIO LUZ CLARA(1350)</name>
    <description><![CDATA[<h3>?? ENTREGA #11</h3><p><b>Cliente:</b> CASTRO ROCIO LUZ CLARA(1350)</p><p><b>Repartidor:</b> MARTIN</p>]]></description>
    <styleUrl>#cliente</styleUrl>
    <Point>
        <coordinates>-62.30368100,-38.71290500,0</coordinates>
    </Point>
</Placemark>
<Placemark>
    <name>12: ULLOA BERTA MAGDALENA(2650)</name>
    <description><![CDATA[<h3>?? ENTREGA #12</h3><p><b>Cliente:</b> ULLOA BERTA MAGDALENA(2650)</p><p><b>Repartidor:</b> MARTIN</p>]]></description>
    <styleUrl>#cliente</styleUrl>
    <Point>
        <coordinates>-62.30541321,-38.70203219,0</coordinates>
    </Point>
</Placemark>
<Placemark>
    <name>13: SCARFI LEONEL(2592)</name>
    <description><![CDATA[<h3>?? ENTREGA #13</h3><p><b>Cliente:</b> SCARFI LEONEL(2592)</p><p><b>Repartidor:</b> MARTIN</p>]]></description>
    <styleUrl>#cliente</styleUrl>
    <Point>
        <coordinates>-62.30197927,-38.70155406,0</coordinates>
    </Point>
</Placemark>
<Placemark>
    <name>14: MARTINEZ ROSANA EDITH(2466)</name>
    <description><![CDATA[<h3>?? ENTREGA #14</h3><p><b>Cliente:</b> MARTINEZ ROSANA EDITH(2466)</p><p><b>Repartidor:</b> MARTIN</p>]]></description>
    <styleUrl>#cliente</styleUrl>
    <Point>
        <coordinates>-62.31440302,-38.69679230,0</coordinates>
    </Point>
</Placemark>
<Placemark>
    <name>15: GARCIA ADRIAN HECTOR OMAR(692)</name>
    <description><![CDATA[<h3>?? ENTREGA #15</h3><p><b>Cliente:</b> GARCIA ADRIAN HECTOR OMAR(692)</p><p><b>Repartidor:</b> MARTIN</p>]]></description>
    <styleUrl>#cliente</styleUrl>
    <Point>
        <coordinates>-62.33819000,-38.70075000,0</coordinates>
    </Point>
</Placemark>
<Placemark>
    <name>16: LLAMAS GINA DANILA(2484)</name>
    <description><![CDATA[<h3>?? ENTREGA #16</h3><p><b>Cliente:</b> LLAMAS GINA DANILA(2484)</p><p><b>Repartidor:</b> MARTIN</p>]]></description>
    <styleUrl>#cliente</styleUrl>
    <Point>
        <coordinates>-62.33772682,-38.68439366,0</coordinates>
    </Point>
</Placemark>
<Placemark>
    <name>17: ROBERT JUAN(46)</name>
    <description><![CDATA[<h3>?? ENTREGA #17</h3><p><b>Cliente:</b> ROBERT JUAN(46)</p><p><b>Repartidor:</b> MARTIN</p>]]></description>
    <styleUrl>#cliente</styleUrl>
    <Point>
        <coordinates>-62.33430301,-38.67829967,0</coordinates>
    </Point>
</Placemark>
<Placemark>
    <name>Ruta Optimizada</name>
    <description>Recorrido optimizado con time windows</description>
    <styleUrl>#rutaLinea</styleUrl>
    <LineString>
        <tessellate>1</tessellate>
        <coordinates>-62.30073400,-38.72817300,0 -62.29952112,-38.72422715,0 -62.30821973,-38.72164036,0 -62.31000469,-38.71958799,0 -62.31078788,-38.71714895,0 -62.31320035,-38.72075789,0 -62.31821396,-38.71681964,0 -62.32143187,-38.71347081,0 -62.31016909,-38.70696816,0 -62.30595300,-38.71058400,0 -62.30317176,-38.71042227,0 -62.30368100,-38.71290500,0 -62.30541321,-38.70203219,0 -62.30197927,-38.70155406,0 -62.31440302,-38.69679230,0 -62.33819000,-38.70075000,0 -62.33772682,-38.68439366,0 -62.33430301,-38.67829967,0 -62.30073400,-38.72817300,0</coordinates>
    </LineString>
</Placemark>
</Document>
</kml>