<?xml version="1.0" encoding="UTF-8"?>
<kml xmlns="http://www.opengis.net/kml/2.2">
<Document>
<name>Ruta Optimizada - PEDRO_LURO - 02-10-2025</name>
<description>Ruta optimizada con time windows Tema: CLASICO</description>

<!-- Estilo para el depósito -->
<Style id="deposito">
    <IconStyle>
        <color>ff0000ff</color>
        <scale>1.3</scale>
        <Icon>
            <href>http://maps.google.com/mapfiles/kml/shapes/homegardenbusiness.png</href>
        </Icon>
    </IconStyle>
    <LabelStyle>
        <color>ff0000ff</color>
        <scale>1.2</scale>
    </LabelStyle>
</Style>

<!-- Estilo para clientes -->
<Style id="cliente">
    <IconStyle>
        <color>ffff0000</color>
        <scale>1.0</scale>
        <Icon>
            <href>http://maps.google.com/mapfiles/kml/shapes/truck.png</href>
        </Icon>
    </IconStyle>
    <LabelStyle>
        <color>ffff0000</color>
        <scale>1.0</scale>
    </LabelStyle>
</Style>
<!-- Estilo para cliente VIP -->
<Style id="clienteVip">
    <IconStyle>
        <color>ffff00ff</color>
        <scale>1.3</scale>
        <Icon>
            <href>http://maps.google.com/mapfiles/kml/shapes/star.png</href>
        </Icon>
    </IconStyle>
    <LabelStyle>
        <color>ffff00ff</color>
        <scale>1.0</scale>
    </LabelStyle>
</Style>
    
 <!-- Estilo para la ruta -->
<Style id="rutaLinea">
    <LineStyle>
        <color>ff0000ff</color>
        <width>4</width>
    </LineStyle>
</Style><Placemark>
    <name>DEPÓSITO - DEPOSITO</name>
    <description><![CDATA[<h3>?? PUNTO DE PARTIDA</h3><p><strong>Repartidor:</strong> PEDRO_LURO</p><p><strong>Fecha:</strong> 02-10-2025</p><p><em>?? INICIAR RECORRIDO AQUÍ</em></p>]]></description>
    <styleUrl>#deposito</styleUrl>
    <Point>
        <coordinates>-62.30073400,-38.72817300,0</coordinates>
    </Point>
</Placemark>
<Placemark>
    <name>1: FANG KAI(227)</name>
    <description><![CDATA[<h3>?? ENTREGA #1</h3><p><b>Cliente:</b> FANG KAI(227)</p><p><b>Repartidor:</b> PEDRO_LURO</p>]]></description>
    <styleUrl>#cliente</styleUrl>
    <Point>
        <coordinates>-62.61544400,-39.25905500,0</coordinates>
    </Point>
</Placemark>
<Placemark>
    <name>2: RESCHKE OSCAR DANIEL(195)</name>
    <description><![CDATA[<h3>?? ENTREGA #2</h3><p><b>Cliente:</b> RESCHKE OSCAR DANIEL(195)</p><p><b>Repartidor:</b> PEDRO_LURO</p>]]></description>
    <styleUrl>#cliente</styleUrl>
    <Point>
        <coordinates>-62.61178200,-39.25078900,0</coordinates>
    </Point>
</Placemark>
<Placemark>
    <name>3: RESIDENCIA EL PINAR DE BURATO SRL(992)</name>
    <description><![CDATA[<h3>?? ENTREGA #3</h3><p><b>Cliente:</b> RESIDENCIA EL PINAR DE BURATO SRL(992)</p><p><b>Repartidor:</b> PEDRO_LURO</p>]]></description>
    <styleUrl>#cliente</styleUrl>
    <Point>
        <coordinates>-62.61446000,-39.26037900,0</coordinates>
    </Point>
</Placemark>
<Placemark>
    <name>4: ALZORRIZ ANDRES ANTONIO(1321)</name>
    <description><![CDATA[<h3>?? ENTREGA #4</h3><p><b>Cliente:</b> ALZORRIZ ANDRES ANTONIO(1321)</p><p><b>Repartidor:</b> PEDRO_LURO</p>]]></description>
    <styleUrl>#cliente</styleUrl>
    <Point>
        <coordinates>-62.61950300,-39.26165300,0</coordinates>
    </Point>
</Placemark>
<Placemark>
    <name>5: HERRADA GIL ADRIAN NICOLAS(1327)</name>
    <description><![CDATA[<h3>?? ENTREGA #5</h3><p><b>Cliente:</b> HERRADA GIL ADRIAN NICOLAS(1327)</p><p><b>Repartidor:</b> PEDRO_LURO</p>]]></description>
    <styleUrl>#cliente</styleUrl>
    <Point>
        <coordinates>-62.62024900,-39.26263300,0</coordinates>
    </Point>
</Placemark>
<Placemark>
    <name>6: CONDORI ABIGAIL(2121)</name>
    <description><![CDATA[<h3>?? ENTREGA #6</h3><p><b>Cliente:</b> CONDORI ABIGAIL(2121)</p><p><b>Repartidor:</b> PEDRO_LURO</p>]]></description>
    <styleUrl>#cliente</styleUrl>
    <Point>
        <coordinates>-62.61571000,-39.26469200,0</coordinates>
    </Point>
</Placemark>
<Placemark>
    <name>7: FUNES ANA MARIA(1329)</name>
    <description><![CDATA[<h3>?? ENTREGA #7</h3><p><b>Cliente:</b> FUNES ANA MARIA(1329)</p><p><b>Repartidor:</b> PEDRO_LURO</p>]]></description>
    <styleUrl>#cliente</styleUrl>
    <Point>
        <coordinates>-62.60763600,-39.26080300,0</coordinates>
    </Point>
</Placemark>
<Placemark>
    <name>8: GARAT MATIAS URIEL(1335)</name>
    <description><![CDATA[<h3>?? ENTREGA #8</h3><p><b>Cliente:</b> GARAT MATIAS URIEL(1335)</p><p><b>Repartidor:</b> PEDRO_LURO</p>]]></description>
    <styleUrl>#cliente</styleUrl>
    <Point>
        <coordinates>-62.64838900,-39.37602500,0</coordinates>
    </Point>
</Placemark>
<Placemark>
    <name>9: LIN JIANHONG(1280)</name>
    <description><![CDATA[<h3>?? ENTREGA #9</h3><p><b>Cliente:</b> LIN JIANHONG(1280)</p><p><b>Repartidor:</b> PEDRO_LURO</p>]]></description>
    <styleUrl>#cliente</styleUrl>
    <Point>
        <coordinates>-62.64860000,-39.37703000,0</coordinates>
    </Point>
</Placemark>
<Placemark>
    <name>10: BAKOS MAXIMILIANO(926)</name>
    <description><![CDATA[<h3>?? ENTREGA #10</h3><p><b>Cliente:</b> BAKOS MAXIMILIANO(926)</p><p><b>Repartidor:</b> PEDRO_LURO</p>]]></description>
    <styleUrl>#cliente</styleUrl>
    <Point>
        <coordinates>-62.68425000,-39.49517000,0</coordinates>
    </Point>
</Placemark>
<Placemark>
    <name>11: PRODUCTOS Y SERVICIOS MISKY MAYO SRL EN(2161)</name>
    <description><![CDATA[<h3>?? ENTREGA #11</h3><p><b>Cliente:</b> PRODUCTOS Y SERVICIOS MISKY MAYO SRL EN(2161)</p><p><b>Repartidor:</b> PEDRO_LURO</p>]]></description>
    <styleUrl>#cliente</styleUrl>
    <Point>
        <coordinates>-62.69033100,-39.49471300,0</coordinates>
    </Point>
</Placemark>
<Placemark>
    <name>12: VERON SERGIO ALEJANDRO(311)</name>
    <description><![CDATA[<h3>?? ENTREGA #12</h3><p><b>Cliente:</b> VERON SERGIO ALEJANDRO(311)</p><p><b>Repartidor:</b> PEDRO_LURO</p>]]></description>
    <styleUrl>#cliente</styleUrl>
    <Point>
        <coordinates>-62.69233700,-39.49509200,0</coordinates>
    </Point>
</Placemark>
<Placemark>
    <name>13: LARZABAL DELIA HAYDEE(1019)</name>
    <description><![CDATA[<h3>?? ENTREGA #13</h3><p><b>Cliente:</b> LARZABAL DELIA HAYDEE(1019)</p><p><b>Repartidor:</b> PEDRO_LURO</p>]]></description>
    <styleUrl>#cliente</styleUrl>
    <Point>
        <coordinates>-62.68398500,-39.50291000,0</coordinates>
    </Point>
</Placemark>
<Placemark>
    <name>14: SARTISON NICOLAS MARTIN(2253)</name>
    <description><![CDATA[<h3>?? ENTREGA #14</h3><p><b>Cliente:</b> SARTISON NICOLAS MARTIN(2253)</p><p><b>Repartidor:</b> PEDRO_LURO</p>]]></description>
    <styleUrl>#cliente</styleUrl>
    <Point>
        <coordinates>-62.68234000,-39.50381000,0</coordinates>
    </Point>
</Placemark>
<Placemark>
    <name>15: CHEN QUIN(2081)</name>
    <description><![CDATA[<h3>?? ENTREGA #15</h3><p><b>Cliente:</b> CHEN QUIN(2081)</p><p><b>Repartidor:</b> PEDRO_LURO</p>]]></description>
    <styleUrl>#cliente</styleUrl>
    <Point>
        <coordinates>-62.68194000,-39.50464000,0</coordinates>
    </Point>
</Placemark>
<Placemark>
    <name>16: TITO JESICA PAMELA(1268)</name>
    <description><![CDATA[<h3>?? ENTREGA #16</h3><p><b>Cliente:</b> TITO JESICA PAMELA(1268)</p><p><b>Repartidor:</b> PEDRO_LURO</p>]]></description>
    <styleUrl>#cliente</styleUrl>
    <Point>
        <coordinates>-62.68072300,-39.49994900,0</coordinates>
    </Point>
</Placemark>
<Placemark>
    <name>Ruta Optimizada</name>
    <description>Recorrido optimizado con time windows</description>
    <styleUrl>#rutaLinea</styleUrl>
    <LineString>
        <tessellate>1</tessellate>
        <coordinates>-62.30073400,-38.72817300,0 -62.61544400,-39.25905500,0 -62.61178200,-39.25078900,0 -62.61446000,-39.26037900,0 -62.61950300,-39.26165300,0 -62.62024900,-39.26263300,0 -62.61571000,-39.26469200,0 -62.60763600,-39.26080300,0 -62.64838900,-39.37602500,0 -62.64860000,-39.37703000,0 -62.68425000,-39.49517000,0 -62.69033100,-39.49471300,0 -62.69233700,-39.49509200,0 -62.68398500,-39.50291000,0 -62.68234000,-39.50381000,0 -62.68194000,-39.50464000,0 -62.68072300,-39.49994900,0 -62.30073400,-38.72817300,0</coordinates>
    </LineString>
</Placemark>
</Document>
</kml>