<?xml version="1.0" encoding="UTF-8"?>
<kml xmlns="http://www.opengis.net/kml/2.2">
<Document>
<name>Ruta Optimizada - MARTIN - 02-10-2025</name>
<description>Ruta optimizada con time windows Tema: CLASICO</description>

<!-- Estilo para el depósito -->
<Style id="deposito">
    <IconStyle>
        <color>ff0000ff</color>
        <scale>1.3</scale>
        <Icon>
            <href>http://maps.google.com/mapfiles/kml/shapes/homegardenbusiness.png</href>
        </Icon>
    </IconStyle>
    <LabelStyle>
        <color>ff0000ff</color>
        <scale>1.2</scale>
    </LabelStyle>
</Style>

<!-- Estilo para clientes -->
<Style id="cliente">
    <IconStyle>
        <color>ffff0000</color>
        <scale>1.0</scale>
        <Icon>
            <href>http://maps.google.com/mapfiles/kml/shapes/truck.png</href>
        </Icon>
    </IconStyle>
    <LabelStyle>
        <color>ffff0000</color>
        <scale>1.0</scale>
    </LabelStyle>
</Style>
<!-- Estilo para cliente VIP -->
<Style id="clienteVip">
    <IconStyle>
        <color>ffff00ff</color>
        <scale>1.3</scale>
        <Icon>
            <href>http://maps.google.com/mapfiles/kml/shapes/star.png</href>
        </Icon>
    </IconStyle>
    <LabelStyle>
        <color>ffff00ff</color>
        <scale>1.0</scale>
    </LabelStyle>
</Style>
    
 <!-- Estilo para la ruta -->
<Style id="rutaLinea">
    <LineStyle>
        <color>ff0000ff</color>
        <width>4</width>
    </LineStyle>
</Style><Placemark>
    <name>DEPÓSITO - DEPOSITO</name>
    <description><![CDATA[<h3>?? PUNTO DE PARTIDA</h3><p><strong>Repartidor:</strong> MARTIN</p><p><strong>Fecha:</strong> 02-10-2025</p><p><em>?? INICIAR RECORRIDO AQUÍ</em></p>]]></description>
    <styleUrl>#deposito</styleUrl>
    <Point>
        <coordinates>-62.30073400,-38.72817300,0</coordinates>
    </Point>
</Placemark>
<Placemark>
    <name>1: GONZALEZ SARA(2797)</name>
    <description><![CDATA[<h3>?? ENTREGA #1</h3><p><b>Cliente:</b> GONZALEZ SARA(2797)</p><p><b>Repartidor:</b> MARTIN</p>]]></description>
    <styleUrl>#cliente</styleUrl>
    <Point>
        <coordinates>-62.18942318,-38.74465076,0</coordinates>
    </Point>
</Placemark>
<Placemark>
    <name>2: MARDONES NOEMI GRACIELA(1175)</name>
    <description><![CDATA[<h3>?? ENTREGA #2</h3><p><b>Cliente:</b> MARDONES NOEMI GRACIELA(1175)</p><p><b>Repartidor:</b> MARTIN</p>]]></description>
    <styleUrl>#cliente</styleUrl>
    <Point>
        <coordinates>-62.20075852,-38.71992049,0</coordinates>
    </Point>
</Placemark>
<Placemark>
    <name>3: STELE CLAUDIA PATRICIA(2146)</name>
    <description><![CDATA[<h3>?? ENTREGA #3</h3><p><b>Cliente:</b> STELE CLAUDIA PATRICIA(2146)</p><p><b>Repartidor:</b> MARTIN</p>]]></description>
    <styleUrl>#cliente</styleUrl>
    <Point>
        <coordinates>-62.22195964,-38.72970164,0</coordinates>
    </Point>
</Placemark>
<Placemark>
    <name>4: SAVOF NATALIA(49)</name>
    <description><![CDATA[<h3>?? ENTREGA #4</h3><p><b>Cliente:</b> SAVOF NATALIA(49)</p><p><b>Repartidor:</b> MARTIN</p>]]></description>
    <styleUrl>#cliente</styleUrl>
    <Point>
        <coordinates>-62.18879420,-38.71461809,0</coordinates>
    </Point>
</Placemark>
<Placemark>
    <name>5: PERFECTIVA SANTOS(226)</name>
    <description><![CDATA[<h3>?? ENTREGA #5</h3><p><b>Cliente:</b> PERFECTIVA SANTOS(226)</p><p><b>Repartidor:</b> MARTIN</p>]]></description>
    <styleUrl>#cliente</styleUrl>
    <Point>
        <coordinates>-62.19881000,-38.72319000,0</coordinates>
    </Point>
</Placemark>
<Placemark>
    <name>6: MARTINEZ MARISOL(36)</name>
    <description><![CDATA[<h3>?? ENTREGA #6</h3><p><b>Cliente:</b> MARTINEZ MARISOL(36)</p><p><b>Repartidor:</b> MARTIN</p>]]></description>
    <styleUrl>#cliente</styleUrl>
    <Point>
        <coordinates>-62.21804881,-38.72955860,0</coordinates>
    </Point>
</Placemark>
<Placemark>
    <name>7: FANTAGUSI PATRICIA(1665)</name>
    <description><![CDATA[<h3>?? ENTREGA #7</h3><p><b>Cliente:</b> FANTAGUSI PATRICIA(1665)</p><p><b>Repartidor:</b> MARTIN</p>]]></description>
    <styleUrl>#cliente</styleUrl>
    <Point>
        <coordinates>-62.21852100,-38.73023200,0</coordinates>
    </Point>
</Placemark>
<Placemark>
    <name>8: DURAN MARCOS DANIEL(2757)</name>
    <description><![CDATA[<h3>?? ENTREGA #8</h3><p><b>Cliente:</b> DURAN MARCOS DANIEL(2757)</p><p><b>Repartidor:</b> MARTIN</p>]]></description>
    <styleUrl>#cliente</styleUrl>
    <Point>
        <coordinates>-62.17728421,-38.75184194,0</coordinates>
    </Point>
</Placemark>
<Placemark>
    <name>9: SAGRIPANTI GABRIELA EDITH(2771)</name>
    <description><![CDATA[<h3>?? ENTREGA #9</h3><p><b>Cliente:</b> SAGRIPANTI GABRIELA EDITH(2771)</p><p><b>Repartidor:</b> MARTIN</p>]]></description>
    <styleUrl>#cliente</styleUrl>
    <Point>
        <coordinates>-62.16455000,-38.74331000,0</coordinates>
    </Point>
</Placemark>
<Placemark>
    <name>10: MONTENEGRO MARIANA SOLEDAD(2775)</name>
    <description><![CDATA[<h3>?? ENTREGA #10</h3><p><b>Cliente:</b> MONTENEGRO MARIANA SOLEDAD(2775)</p><p><b>Repartidor:</b> MARTIN</p>]]></description>
    <styleUrl>#cliente</styleUrl>
    <Point>
        <coordinates>-62.18987635,-38.74621023,0</coordinates>
    </Point>
</Placemark>
<Placemark>
    <name>11: MATEO JORGE DANIE(1079)</name>
    <description><![CDATA[<h3>?? ENTREGA #11</h3><p><b>Cliente:</b> MATEO JORGE DANIE(1079)</p><p><b>Repartidor:</b> MARTIN</p>]]></description>
    <styleUrl>#cliente</styleUrl>
    <Point>
        <coordinates>-62.19312338,-38.74905177,0</coordinates>
    </Point>
</Placemark>
<Placemark>
    <name>12: MERCADITO LA CHOLA(1085)</name>
    <description><![CDATA[<h3>?? ENTREGA #12</h3><p><b>Cliente:</b> MERCADITO LA CHOLA(1085)</p><p><b>Repartidor:</b> MARTIN</p>]]></description>
    <styleUrl>#cliente</styleUrl>
    <Point>
        <coordinates>-62.22691956,-38.73666547,0</coordinates>
    </Point>
</Placemark>
<Placemark>
    <name>13: ECHARRI SEBASTIAN HORACIO(133)</name>
    <description><![CDATA[<h3>?? ENTREGA #13</h3><p><b>Cliente:</b> ECHARRI SEBASTIAN HORACIO(133)</p><p><b>Repartidor:</b> MARTIN</p>]]></description>
    <styleUrl>#cliente</styleUrl>
    <Point>
        <coordinates>-62.19406328,-38.71711207,0</coordinates>
    </Point>
</Placemark>
<Placemark>
    <name>14: SAVOFF MAURO DEMETRIO(823)</name>
    <description><![CDATA[<h3>?? ENTREGA #14</h3><p><b>Cliente:</b> SAVOFF MAURO DEMETRIO(823)</p><p><b>Repartidor:</b> MARTIN</p>]]></description>
    <styleUrl>#cliente</styleUrl>
    <Point>
        <coordinates>-62.19402994,-38.71243092,0</coordinates>
    </Point>
</Placemark>
<Placemark>
    <name>15: ZHENG XUEQIN(2594)</name>
    <description><![CDATA[<h3>?? ENTREGA #15</h3><p><b>Cliente:</b> ZHENG XUEQIN(2594)</p><p><b>Repartidor:</b> MARTIN</p>]]></description>
    <styleUrl>#cliente</styleUrl>
    <Point>
        <coordinates>-62.21361996,-38.73929211,0</coordinates>
    </Point>
</Placemark>
<Placemark>
    <name>16: GARRIDO HIDALGO EDUARDO ENRIQUE(141)</name>
    <description><![CDATA[<h3>?? ENTREGA #16</h3><p><b>Cliente:</b> GARRIDO HIDALGO EDUARDO ENRIQUE(141)</p><p><b>Repartidor:</b> MARTIN</p>]]></description>
    <styleUrl>#cliente</styleUrl>
    <Point>
        <coordinates>-62.22939842,-38.73843820,0</coordinates>
    </Point>
</Placemark>
<Placemark>
    <name>17: SALGADO PEREZ ALEXANDER JESUS(2766)</name>
    <description><![CDATA[<h3>?? ENTREGA #17</h3><p><b>Cliente:</b> SALGADO PEREZ ALEXANDER JESUS(2766)</p><p><b>Repartidor:</b> MARTIN</p>]]></description>
    <styleUrl>#cliente</styleUrl>
    <Point>
        <coordinates>-62.21772261,-38.73835104,0</coordinates>
    </Point>
</Placemark>
<Placemark>
    <name>18: SEPULVEDA MABEL(2798)</name>
    <description><![CDATA[<h3>?? ENTREGA #18</h3><p><b>Cliente:</b> SEPULVEDA MABEL(2798)</p><p><b>Repartidor:</b> MARTIN</p>]]></description>
    <styleUrl>#cliente</styleUrl>
    <Point>
        <coordinates>-62.18145116,-38.74845280,0</coordinates>
    </Point>
</Placemark>
<Placemark>
    <name>19: FUENTES BERTA SILVANA (SUCURSAL)(1505)</name>
    <description><![CDATA[<h3>?? ENTREGA #19</h3><p><b>Cliente:</b> FUENTES BERTA SILVANA (SUCURSAL)(1505)</p><p><b>Repartidor:</b> MARTIN</p>]]></description>
    <styleUrl>#cliente</styleUrl>
    <Point>
        <coordinates>-62.19466492,-38.71340435,0</coordinates>
    </Point>
</Placemark>
<Placemark>
    <name>20: CHEN JIANFA(981)</name>
    <description><![CDATA[<h3>?? ENTREGA #20</h3><p><b>Cliente:</b> CHEN JIANFA(981)</p><p><b>Repartidor:</b> MARTIN</p>]]></description>
    <styleUrl>#cliente</styleUrl>
    <Point>
        <coordinates>-62.22313309,-38.73247933,0</coordinates>
    </Point>
</Placemark>
<Placemark>
    <name>21: LI HAIXIA(929)</name>
    <description><![CDATA[<h3>?? ENTREGA #21</h3><p><b>Cliente:</b> LI HAIXIA(929)</p><p><b>Repartidor:</b> MARTIN</p>]]></description>
    <styleUrl>#cliente</styleUrl>
    <Point>
        <coordinates>-62.22417231,-38.73870038,0</coordinates>
    </Point>
</Placemark>
<Placemark>
    <name>22: FUENTES VERONICA ANDREA(1759)</name>
    <description><![CDATA[<h3>?? ENTREGA #22</h3><p><b>Cliente:</b> FUENTES VERONICA ANDREA(1759)</p><p><b>Repartidor:</b> MARTIN</p>]]></description>
    <styleUrl>#cliente</styleUrl>
    <Point>
        <coordinates>-62.19397000,-38.74901000,0</coordinates>
    </Point>
</Placemark>
<Placemark>
    <name>23: VEDOVALDI SILVINA ALEJANDRA(2776)</name>
    <description><![CDATA[<h3>?? ENTREGA #23</h3><p><b>Cliente:</b> VEDOVALDI SILVINA ALEJANDRA(2776)</p><p><b>Repartidor:</b> MARTIN</p>]]></description>
    <styleUrl>#cliente</styleUrl>
    <Point>
        <coordinates>-62.19411200,-38.74993000,0</coordinates>
    </Point>
</Placemark>
<Placemark>
    <name>24: SACOMANI MARIANO NICOLAS(2355)</name>
    <description><![CDATA[<h3>?? ENTREGA #24</h3><p><b>Cliente:</b> SACOMANI MARIANO NICOLAS(2355)</p><p><b>Repartidor:</b> MARTIN</p>]]></description>
    <styleUrl>#cliente</styleUrl>
    <Point>
        <coordinates>-62.29346100,-38.68366900,0</coordinates>
    </Point>
</Placemark>
<Placemark>
    <name>25: LLEIFUL CARLOS DARIO(212)</name>
    <description><![CDATA[<h3>?? ENTREGA #25</h3><p><b>Cliente:</b> LLEIFUL CARLOS DARIO(212)</p><p><b>Repartidor:</b> MARTIN</p>]]></description>
    <styleUrl>#cliente</styleUrl>
    <Point>
        <coordinates>-62.26610200,-38.66695700,0</coordinates>
    </Point>
</Placemark>
<Placemark>
    <name>26: DUBE ARIEL ALEJANDRO(2803)</name>
    <description><![CDATA[<h3>?? ENTREGA #26</h3><p><b>Cliente:</b> DUBE ARIEL ALEJANDRO(2803)</p><p><b>Repartidor:</b> MARTIN</p>]]></description>
    <styleUrl>#cliente</styleUrl>
    <Point>
        <coordinates>-61.77159000,-38.20660000,0</coordinates>
    </Point>
</Placemark>
<Placemark>
    <name>27: VEGA MARCELO MARTIN(1667)</name>
    <description><![CDATA[<h3>?? ENTREGA #27</h3><p><b>Cliente:</b> VEGA MARCELO MARTIN(1667)</p><p><b>Repartidor:</b> MARTIN</p>]]></description>
    <styleUrl>#cliente</styleUrl>
    <Point>
        <coordinates>-62.26796300,-38.78187100,0</coordinates>
    </Point>
</Placemark>
<Placemark>
    <name>28: BOBADILLA DANIEL(1607)</name>
    <description><![CDATA[<h3>?? ENTREGA #28</h3><p><b>Cliente:</b> BOBADILLA DANIEL(1607)</p><p><b>Repartidor:</b> MARTIN</p>]]></description>
    <styleUrl>#cliente</styleUrl>
    <Point>
        <coordinates>-62.27530700,-38.76858600,0</coordinates>
    </Point>
</Placemark>
<Placemark>
    <name>29: KE WUJIN(892)</name>
    <description><![CDATA[<h3>?? ENTREGA #29</h3><p><b>Cliente:</b> KE WUJIN(892)</p><p><b>Repartidor:</b> MARTIN</p>]]></description>
    <styleUrl>#cliente</styleUrl>
    <Point>
        <coordinates>-62.26575700,-38.78354800,0</coordinates>
    </Point>
</Placemark>
<Placemark>
    <name>Ruta Optimizada</name>
    <description>Recorrido optimizado con time windows</description>
    <styleUrl>#rutaLinea</styleUrl>
    <LineString>
        <tessellate>1</tessellate>
        <coordinates>-62.30073400,-38.72817300,0 -62.18942318,-38.74465076,0 -62.20075852,-38.71992049,0 -62.22195964,-38.72970164,0 -62.18879420,-38.71461809,0 -62.19881000,-38.72319000,0 -62.21804881,-38.72955860,0 -62.21852100,-38.73023200,0 -62.17728421,-38.75184194,0 -62.16455000,-38.74331000,0 -62.18987635,-38.74621023,0 -62.19312338,-38.74905177,0 -62.22691956,-38.73666547,0 -62.19406328,-38.71711207,0 -62.19402994,-38.71243092,0 -62.21361996,-38.73929211,0 -62.22939842,-38.73843820,0 -62.21772261,-38.73835104,0 -62.18145116,-38.74845280,0 -62.19466492,-38.71340435,0 -62.22313309,-38.73247933,0 -62.22417231,-38.73870038,0 -62.19397000,-38.74901000,0 -62.19411200,-38.74993000,0 -62.29346100,-38.68366900,0 -62.26610200,-38.66695700,0 -61.77159000,-38.20660000,0 -62.26796300,-38.78187100,0 -62.27530700,-38.76858600,0 -62.26575700,-38.78354800,0 -62.30073400,-38.72817300,0</coordinates>
    </LineString>
</Placemark>
</Document>
</kml>