<?xml version="1.0" encoding="UTF-8"?>
<kml xmlns="http://www.opengis.net/kml/2.2">
<Document>
<name>Ruta Optimizada - Oficina - 26-09-2025</name>
<description>Ruta optimizada con time windows Tema: CLASICO</description>

<!-- Estilo para el depósito -->
<Style id="deposito">
    <IconStyle>
        <color>ff0000ff</color>
        <scale>1.3</scale>
        <Icon>
            <href>http://maps.google.com/mapfiles/kml/shapes/homegardenbusiness.png</href>
        </Icon>
    </IconStyle>
    <LabelStyle>
        <color>ff0000ff</color>
        <scale>1.2</scale>
    </LabelStyle>
</Style>

<!-- Estilo para clientes -->
<Style id="cliente">
    <IconStyle>
        <color>ffff0000</color>
        <scale>1.0</scale>
        <Icon>
            <href>http://maps.google.com/mapfiles/kml/shapes/truck.png</href>
        </Icon>
    </IconStyle>
    <LabelStyle>
        <color>ffff0000</color>
        <scale>1.0</scale>
    </LabelStyle>
</Style>
<!-- Estilo para cliente VIP -->
<Style id="clienteVip">
    <IconStyle>
        <color>ffff00ff</color>
        <scale>1.3</scale>
        <Icon>
            <href>http://maps.google.com/mapfiles/kml/shapes/star.png</href>
        </Icon>
    </IconStyle>
    <LabelStyle>
        <color>ffff00ff</color>
        <scale>1.0</scale>
    </LabelStyle>
</Style>
    
 <!-- Estilo para la ruta -->
<Style id="rutaLinea">
    <LineStyle>
        <color>ff0000ff</color>
        <width>4</width>
    </LineStyle>
</Style><Placemark>
    <name>-38.72817300</name>
    <description><![CDATA[<p>-38.72817300</p>]]></description>
    <styleUrl>#cliente</styleUrl>
    <Point>
        <coordinates>0.00000000,0.00000000,0</coordinates>
    </Point>
</Placemark>
<Placemark>
    <name>-38.72422715</name>
    <description><![CDATA[<p>-38.72422715</p>]]></description>
    <styleUrl>#cliente</styleUrl>
    <Point>
        <coordinates>0.00000000,0.00000000,0</coordinates>
    </Point>
</Placemark>
<Placemark>
    <name>-38.72164036</name>
    <description><![CDATA[<p>-38.72164036</p>]]></description>
    <styleUrl>#cliente</styleUrl>
    <Point>
        <coordinates>0.00000000,0.00000000,0</coordinates>
    </Point>
</Placemark>
<Placemark>
    <name>-38.71958799</name>
    <description><![CDATA[<p>-38.71958799</p>]]></description>
    <styleUrl>#cliente</styleUrl>
    <Point>
        <coordinates>0.00000000,0.00000000,0</coordinates>
    </Point>
</Placemark>
<Placemark>
    <name>-38.71714895</name>
    <description><![CDATA[<p>-38.71714895</p>]]></description>
    <styleUrl>#cliente</styleUrl>
    <Point>
        <coordinates>0.00000000,0.00000000,0</coordinates>
    </Point>
</Placemark>
<Placemark>
    <name>-38.72075789</name>
    <description><![CDATA[<p>-38.72075789</p>]]></description>
    <styleUrl>#cliente</styleUrl>
    <Point>
        <coordinates>0.00000000,0.00000000,0</coordinates>
    </Point>
</Placemark>
<Placemark>
    <name>-38.71681964</name>
    <description><![CDATA[<p>-38.71681964</p>]]></description>
    <styleUrl>#cliente</styleUrl>
    <Point>
        <coordinates>0.00000000,0.00000000,0</coordinates>
    </Point>
</Placemark>
<Placemark>
    <name>-38.71347081</name>
    <description><![CDATA[<p>-38.71347081</p>]]></description>
    <styleUrl>#cliente</styleUrl>
    <Point>
        <coordinates>0.00000000,0.00000000,0</coordinates>
    </Point>
</Placemark>
<Placemark>
    <name>-38.70696816</name>
    <description><![CDATA[<p>-38.70696816</p>]]></description>
    <styleUrl>#cliente</styleUrl>
    <Point>
        <coordinates>0.00000000,0.00000000,0</coordinates>
    </Point>
</Placemark>
<Placemark>
    <name>-38.71058400</name>
    <description><![CDATA[<p>-38.71058400</p>]]></description>
    <styleUrl>#cliente</styleUrl>
    <Point>
        <coordinates>0.00000000,0.00000000,0</coordinates>
    </Point>
</Placemark>
<Placemark>
    <name>-38.71042227</name>
    <description><![CDATA[<p>-38.71042227</p>]]></description>
    <styleUrl>#cliente</styleUrl>
    <Point>
        <coordinates>0.00000000,0.00000000,0</coordinates>
    </Point>
</Placemark>
<Placemark>
    <name>-38.71290500</name>
    <description><![CDATA[<p>-38.71290500</p>]]></description>
    <styleUrl>#cliente</styleUrl>
    <Point>
        <coordinates>0.00000000,0.00000000,0</coordinates>
    </Point>
</Placemark>
<Placemark>
    <name>-38.70203219</name>
    <description><![CDATA[<p>-38.70203219</p>]]></description>
    <styleUrl>#cliente</styleUrl>
    <Point>
        <coordinates>0.00000000,0.00000000,0</coordinates>
    </Point>
</Placemark>
<Placemark>
    <name>-38.70155406</name>
    <description><![CDATA[<p>-38.70155406</p>]]></description>
    <styleUrl>#cliente</styleUrl>
    <Point>
        <coordinates>0.00000000,0.00000000,0</coordinates>
    </Point>
</Placemark>
<Placemark>
    <name>-38.69679230</name>
    <description><![CDATA[<p>-38.69679230</p>]]></description>
    <styleUrl>#cliente</styleUrl>
    <Point>
        <coordinates>0.00000000,0.00000000,0</coordinates>
    </Point>
</Placemark>
<Placemark>
    <name>-38.70075000</name>
    <description><![CDATA[<p>-38.70075000</p>]]></description>
    <styleUrl>#cliente</styleUrl>
    <Point>
        <coordinates>0.00000000,0.00000000,0</coordinates>
    </Point>
</Placemark>
<Placemark>
    <name>-38.68439366</name>
    <description><![CDATA[<p>-38.68439366</p>]]></description>
    <styleUrl>#cliente</styleUrl>
    <Point>
        <coordinates>0.00000000,0.00000000,0</coordinates>
    </Point>
</Placemark>
<Placemark>
    <name>-38.67829967</name>
    <description><![CDATA[<p>-38.67829967</p>]]></description>
    <styleUrl>#cliente</styleUrl>
    <Point>
        <coordinates>0.00000000,0.00000000,0</coordinates>
    </Point>
</Placemark>
<Placemark>
    <name>Ruta Optimizada</name>
    <description>Recorrido optimizado con time windows</description>
    <styleUrl>#rutaLinea</styleUrl>
    <LineString>
        <tessellate>1</tessellate>
        <coordinates>0.00000000,0.00000000,0 0.00000000,0.00000000,0 0.00000000,0.00000000,0 0.00000000,0.00000000,0 0.00000000,0.00000000,0 0.00000000,0.00000000,0 0.00000000,0.00000000,0 0.00000000,0.00000000,0 0.00000000,0.00000000,0 0.00000000,0.00000000,0 0.00000000,0.00000000,0 0.00000000,0.00000000,0 0.00000000,0.00000000,0 0.00000000,0.00000000,0 0.00000000,0.00000000,0 0.00000000,0.00000000,0 0.00000000,0.00000000,0 0.00000000,0.00000000,0 0.00000000,0.00000000,0</coordinates>
    </LineString>
</Placemark>
</Document>
</kml>