<?xml version="1.0" encoding="UTF-8"?>
<kml xmlns="http://www.opengis.net/kml/2.2">
<Document>
<name>Ruta Optimizada - MARTIN - 08-10-2025</name>
<description>Ruta optimizada con time windows Tema: CLASICO</description>

<!-- Estilo para el depósito -->
<Style id="deposito">
    <IconStyle>
        <color>ff0000ff</color>
        <scale>1.3</scale>
        <Icon>
            <href>http://maps.google.com/mapfiles/kml/shapes/homegardenbusiness.png</href>
        </Icon>
    </IconStyle>
    <LabelStyle>
        <color>ff0000ff</color>
        <scale>1.2</scale>
    </LabelStyle>
</Style>

<!-- Estilo para clientes -->
<Style id="cliente">
    <IconStyle>
        <color>ffff0000</color>
        <scale>1.0</scale>
        <Icon>
            <href>http://maps.google.com/mapfiles/kml/shapes/truck.png</href>
        </Icon>
    </IconStyle>
    <LabelStyle>
        <color>ffff0000</color>
        <scale>1.0</scale>
    </LabelStyle>
</Style>
<!-- Estilo para cliente VIP -->
<Style id="clienteVip">
    <IconStyle>
        <color>ffff00ff</color>
        <scale>1.3</scale>
        <Icon>
            <href>http://maps.google.com/mapfiles/kml/shapes/star.png</href>
        </Icon>
    </IconStyle>
    <LabelStyle>
        <color>ffff00ff</color>
        <scale>1.0</scale>
    </LabelStyle>
</Style>
    
 <!-- Estilo para la ruta -->
<Style id="rutaLinea">
    <LineStyle>
        <color>ff0000ff</color>
        <width>4</width>
    </LineStyle>
</Style><Placemark>
    <name>DEPÓSITO - DEPOSITO</name>
    <description><![CDATA[<h3>?? PUNTO DE PARTIDA</h3><p><strong>Repartidor:</strong> MARTIN</p><p><strong>Fecha:</strong> 08-10-2025</p><p><em>?? INICIAR RECORRIDO AQUÍ</em></p>]]></description>
    <styleUrl>#deposito</styleUrl>
    <Point>
        <coordinates>-62.30073400,-38.72817300,0</coordinates>
    </Point>
</Placemark>
<Placemark>
    <name>1: MOYANO JUAN PABLO (SUCURSAL)(2761)</name>
    <description><![CDATA[<h3>?? ENTREGA #1</h3><p><b>Cliente:</b> MOYANO JUAN PABLO (SUCURSAL)(2761)</p><p><b>Repartidor:</b> MARTIN</p>]]></description>
    <styleUrl>#cliente</styleUrl>
    <Point>
        <coordinates>-62.27832451,-38.70585209,0</coordinates>
    </Point>
</Placemark>
<Placemark>
    <name>2: BACCINI ALEJANDRA ANGELA(2210)</name>
    <description><![CDATA[<h3>?? ENTREGA #2</h3><p><b>Cliente:</b> BACCINI ALEJANDRA ANGELA(2210)</p><p><b>Repartidor:</b> MARTIN</p>]]></description>
    <styleUrl>#cliente</styleUrl>
    <Point>
        <coordinates>-62.27310300,-38.70661500,0</coordinates>
    </Point>
</Placemark>
<Placemark>
    <name>3: FERNANDEZ ZABALY LUCAS(1668)</name>
    <description><![CDATA[<h3>?? ENTREGA #3</h3><p><b>Cliente:</b> FERNANDEZ ZABALY LUCAS(1668)</p><p><b>Repartidor:</b> MARTIN</p>]]></description>
    <styleUrl>#cliente</styleUrl>
    <Point>
        <coordinates>-62.28996233,-38.71179875,0</coordinates>
    </Point>
</Placemark>
<Placemark>
    <name>4: BENEITES PATRICIA MONICA(1156)</name>
    <description><![CDATA[<h3>?? ENTREGA #4</h3><p><b>Cliente:</b> BENEITES PATRICIA MONICA(1156)</p><p><b>Repartidor:</b> MARTIN</p>]]></description>
    <styleUrl>#cliente</styleUrl>
    <Point>
        <coordinates>-62.27794036,-38.70318761,0</coordinates>
    </Point>
</Placemark>
<Placemark>
    <name>5: MACCARI ORLANDO(134)</name>
    <description><![CDATA[<h3>?? ENTREGA #5</h3><p><b>Cliente:</b> MACCARI ORLANDO(134)</p><p><b>Repartidor:</b> MARTIN</p>]]></description>
    <styleUrl>#cliente</styleUrl>
    <Point>
        <coordinates>-62.27520510,-38.71150505,0</coordinates>
    </Point>
</Placemark>
<Placemark>
    <name>6: NARETTO SERGIO NICOLAS(1571)</name>
    <description><![CDATA[<h3>?? ENTREGA #6</h3><p><b>Cliente:</b> NARETTO SERGIO NICOLAS(1571)</p><p><b>Repartidor:</b> MARTIN</p>]]></description>
    <styleUrl>#cliente</styleUrl>
    <Point>
        <coordinates>-62.27336446,-38.69782004,0</coordinates>
    </Point>
</Placemark>
<Placemark>
    <name>7: RUPEL ANDREA MABEL(1711)</name>
    <description><![CDATA[<h3>?? ENTREGA #7</h3><p><b>Cliente:</b> RUPEL ANDREA MABEL(1711)</p><p><b>Repartidor:</b> MARTIN</p>]]></description>
    <styleUrl>#cliente</styleUrl>
    <Point>
        <coordinates>-62.28071200,-38.70675800,0</coordinates>
    </Point>
</Placemark>
<Placemark>
    <name>8: BELLONE ALBANO(2812)</name>
    <description><![CDATA[<h3>?? ENTREGA #8</h3><p><b>Cliente:</b> BELLONE ALBANO(2812)</p><p><b>Repartidor:</b> MARTIN</p>]]></description>
    <styleUrl>#cliente</styleUrl>
    <Point>
        <coordinates>-62.27507800,-38.70258000,0</coordinates>
    </Point>
</Placemark>
<Placemark>
    <name>9: ESPINAZO MIGUEL ANGEL(1155)</name>
    <description><![CDATA[<h3>?? ENTREGA #9</h3><p><b>Cliente:</b> ESPINAZO MIGUEL ANGEL(1155)</p><p><b>Repartidor:</b> MARTIN</p>]]></description>
    <styleUrl>#cliente</styleUrl>
    <Point>
        <coordinates>-62.28512400,-38.71900600,0</coordinates>
    </Point>
</Placemark>
<Placemark>
    <name>10: DIETRICH JOSE LUIS(117)</name>
    <description><![CDATA[<h3>?? ENTREGA #10</h3><p><b>Cliente:</b> DIETRICH JOSE LUIS(117)</p><p><b>Repartidor:</b> MARTIN</p>]]></description>
    <styleUrl>#cliente</styleUrl>
    <Point>
        <coordinates>-62.30317176,-38.71042227,0</coordinates>
    </Point>
</Placemark>
<Placemark>
    <name>11: DON CORNELIO SA(1295)</name>
    <description><![CDATA[<h3>?? ENTREGA #11</h3><p><b>Cliente:</b> DON CORNELIO SA(1295)</p><p><b>Repartidor:</b> MARTIN</p>]]></description>
    <styleUrl>#cliente</styleUrl>
    <Point>
        <coordinates>-62.26900492,-38.72113657,0</coordinates>
    </Point>
</Placemark>
<Placemark>
    <name>12: PACHECO RAMOS MYRIAM(1790)</name>
    <description><![CDATA[<h3>?? ENTREGA #12</h3><p><b>Cliente:</b> PACHECO RAMOS MYRIAM(1790)</p><p><b>Repartidor:</b> MARTIN</p>]]></description>
    <styleUrl>#cliente</styleUrl>
    <Point>
        <coordinates>-62.28739100,-38.70516909,0</coordinates>
    </Point>
</Placemark>
<Placemark>
    <name>13: TRUJILLO NORMA(550)</name>
    <description><![CDATA[<h3>?? ENTREGA #13</h3><p><b>Cliente:</b> TRUJILLO NORMA(550)</p><p><b>Repartidor:</b> MARTIN</p>]]></description>
    <styleUrl>#cliente</styleUrl>
    <Point>
        <coordinates>-62.29542263,-38.71672291,0</coordinates>
    </Point>
</Placemark>
<Placemark>
    <name>14: SABATTINI SERGIO(152)</name>
    <description><![CDATA[<h3>?? ENTREGA #14</h3><p><b>Cliente:</b> SABATTINI SERGIO(152)</p><p><b>Repartidor:</b> MARTIN</p>]]></description>
    <styleUrl>#cliente</styleUrl>
    <Point>
        <coordinates>-62.28614132,-38.70319033,0</coordinates>
    </Point>
</Placemark>
<Placemark>
    <name>15: INALAF BERNARDO(1097)</name>
    <description><![CDATA[<h3>?? ENTREGA #15</h3><p><b>Cliente:</b> INALAF BERNARDO(1097)</p><p><b>Repartidor:</b> MARTIN</p>]]></description>
    <styleUrl>#cliente</styleUrl>
    <Point>
        <coordinates>-62.30069097,-38.72631685,0</coordinates>
    </Point>
</Placemark>
<Placemark>
    <name>16: MANSILLA GIULIANA ANABELLA(1868)</name>
    <description><![CDATA[<h3>?? ENTREGA #16</h3><p><b>Cliente:</b> MANSILLA GIULIANA ANABELLA(1868)</p><p><b>Repartidor:</b> MARTIN</p>]]></description>
    <styleUrl>#cliente</styleUrl>
    <Point>
        <coordinates>-62.31228600,-38.70505300,0</coordinates>
    </Point>
</Placemark>
<Placemark>
    <name>17: AIMES RUBEN ALBERTO(1852)</name>
    <description><![CDATA[<h3>?? ENTREGA #17</h3><p><b>Cliente:</b> AIMES RUBEN ALBERTO(1852)</p><p><b>Repartidor:</b> MARTIN</p>]]></description>
    <styleUrl>#cliente</styleUrl>
    <Point>
        <coordinates>-62.29961007,-38.72726909,0</coordinates>
    </Point>
</Placemark>
<Placemark>
    <name>Ruta Optimizada</name>
    <description>Recorrido optimizado con time windows</description>
    <styleUrl>#rutaLinea</styleUrl>
    <LineString>
        <tessellate>1</tessellate>
        <coordinates>-62.30073400,-38.72817300,0 -62.27832451,-38.70585209,0 -62.27310300,-38.70661500,0 -62.28996233,-38.71179875,0 -62.27794036,-38.70318761,0 -62.27520510,-38.71150505,0 -62.27336446,-38.69782004,0 -62.28071200,-38.70675800,0 -62.27507800,-38.70258000,0 -62.28512400,-38.71900600,0 -62.30317176,-38.71042227,0 -62.26900492,-38.72113657,0 -62.28739100,-38.70516909,0 -62.29542263,-38.71672291,0 -62.28614132,-38.70319033,0 -62.30069097,-38.72631685,0 -62.31228600,-38.70505300,0 -62.29961007,-38.72726909,0 -62.30073400,-38.72817300,0</coordinates>
    </LineString>
</Placemark>
</Document>
</kml>