<?xml version="1.0" encoding="UTF-8"?>
<kml xmlns="http://www.opengis.net/kml/2.2">
<Document>
<name>Ruta Optimizada - Oficina - 25-09-2025</name>
<description>Ruta optimizada con time windows Tema: CLASICO</description>

<!-- Estilo para el depósito -->
<Style id="deposito">
    <IconStyle>
        <color>ff0000ff</color>
        <scale>1.3</scale>
        <Icon>
            <href>http://maps.google.com/mapfiles/kml/shapes/homegardenbusiness.png</href>
        </Icon>
    </IconStyle>
    <LabelStyle>
        <color>ff0000ff</color>
        <scale>1.2</scale>
    </LabelStyle>
</Style>

<!-- Estilo para clientes -->
<Style id="cliente">
    <IconStyle>
        <color>ffff0000</color>
        <scale>1.0</scale>
        <Icon>
            <href>http://maps.google.com/mapfiles/kml/shapes/truck.png</href>
        </Icon>
    </IconStyle>
    <LabelStyle>
        <color>ffff0000</color>
        <scale>1.0</scale>
    </LabelStyle>
</Style>
<!-- Estilo para cliente VIP -->
<Style id="clienteVip">
    <IconStyle>
        <color>ffff00ff</color>
        <scale>1.3</scale>
        <Icon>
            <href>http://maps.google.com/mapfiles/kml/shapes/star.png</href>
        </Icon>
    </IconStyle>
    <LabelStyle>
        <color>ffff00ff</color>
        <scale>1.0</scale>
    </LabelStyle>
</Style>
    
 <!-- Estilo para la ruta -->
<Style id="rutaLinea">
    <LineStyle>
        <color>ff0000ff</color>
        <width>4</width>
    </LineStyle>
</Style><Placemark>
    <name>-38.72817300</name>
    <description><![CDATA[<p>-38.72817300</p>]]></description>
    <styleUrl>#cliente</styleUrl>
    <Point>
        <coordinates>0.00000000,0.00000000,0</coordinates>
    </Point>
</Placemark>
<Placemark>
    <name>-38.73498454</name>
    <description><![CDATA[<p>-38.73498454</p>]]></description>
    <styleUrl>#cliente</styleUrl>
    <Point>
        <coordinates>0.00000000,0.00000000,0</coordinates>
    </Point>
</Placemark>
<Placemark>
    <name>-38.73341962</name>
    <description><![CDATA[<p>-38.73341962</p>]]></description>
    <styleUrl>#cliente</styleUrl>
    <Point>
        <coordinates>0.00000000,0.00000000,0</coordinates>
    </Point>
</Placemark>
<Placemark>
    <name>-38.73399980</name>
    <description><![CDATA[<p>-38.73399980</p>]]></description>
    <styleUrl>#cliente</styleUrl>
    <Point>
        <coordinates>0.00000000,0.00000000,0</coordinates>
    </Point>
</Placemark>
<Placemark>
    <name>-38.72968161</name>
    <description><![CDATA[<p>-38.72968161</p>]]></description>
    <styleUrl>#cliente</styleUrl>
    <Point>
        <coordinates>0.00000000,0.00000000,0</coordinates>
    </Point>
</Placemark>
<Placemark>
    <name>-38.73159800</name>
    <description><![CDATA[<p>-38.73159800</p>]]></description>
    <styleUrl>#cliente</styleUrl>
    <Point>
        <coordinates>0.00000000,0.00000000,0</coordinates>
    </Point>
</Placemark>
<Placemark>
    <name>-38.73774300</name>
    <description><![CDATA[<p>-38.73774300</p>]]></description>
    <styleUrl>#cliente</styleUrl>
    <Point>
        <coordinates>0.00000000,0.00000000,0</coordinates>
    </Point>
</Placemark>
<Placemark>
    <name>-38.74369241</name>
    <description><![CDATA[<p>-38.74369241</p>]]></description>
    <styleUrl>#cliente</styleUrl>
    <Point>
        <coordinates>0.00000000,0.00000000,0</coordinates>
    </Point>
</Placemark>
<Placemark>
    <name>-38.74419100</name>
    <description><![CDATA[<p>-38.74419100</p>]]></description>
    <styleUrl>#cliente</styleUrl>
    <Point>
        <coordinates>0.00000000,0.00000000,0</coordinates>
    </Point>
</Placemark>
<Placemark>
    <name>-38.74256281</name>
    <description><![CDATA[<p>-38.74256281</p>]]></description>
    <styleUrl>#cliente</styleUrl>
    <Point>
        <coordinates>0.00000000,0.00000000,0</coordinates>
    </Point>
</Placemark>
<Placemark>
    <name>-38.69238900</name>
    <description><![CDATA[<p>-38.69238900</p>]]></description>
    <styleUrl>#cliente</styleUrl>
    <Point>
        <coordinates>0.00000000,0.00000000,0</coordinates>
    </Point>
</Placemark>
<Placemark>
    <name>-38.69238900</name>
    <description><![CDATA[<p>-38.69238900</p>]]></description>
    <styleUrl>#cliente</styleUrl>
    <Point>
        <coordinates>0.00000000,0.00000000,0</coordinates>
    </Point>
</Placemark>
<Placemark>
    <name>Ruta Optimizada</name>
    <description>Recorrido optimizado con time windows</description>
    <styleUrl>#rutaLinea</styleUrl>
    <LineString>
        <tessellate>1</tessellate>
        <coordinates>0.00000000,0.00000000,0 0.00000000,0.00000000,0 0.00000000,0.00000000,0 0.00000000,0.00000000,0 0.00000000,0.00000000,0 0.00000000,0.00000000,0 0.00000000,0.00000000,0 0.00000000,0.00000000,0 0.00000000,0.00000000,0 0.00000000,0.00000000,0 0.00000000,0.00000000,0 0.00000000,0.00000000,0 0.00000000,0.00000000,0</coordinates>
    </LineString>
</Placemark>
</Document>
</kml>