<?xml version="1.0" encoding="UTF-8"?>
<kml xmlns="http://www.opengis.net/kml/2.2">
<Document>
<name>Ruta Optimizada - Oficina - 04-09-2025</name>
<description>Ruta optimizada con time windows Tema: NATURA</description>

<!-- Estilo para el depósito -->
<Style id="deposito">
    <IconStyle>
        <color>ff008000</color>
        <scale>1.3</scale>
        <Icon>
            <href>http://maps.google.com/mapfiles/kml/shapes/homegardenbusiness.png</href>
        </Icon>
    </IconStyle>
    <LabelStyle>
        <color>ff008000</color>
        <scale>1.2</scale>
    </LabelStyle>
</Style>

<!-- Estilo para clientes -->
<Style id="cliente">
    <IconStyle>
        <color>ff00ff00</color>
        <scale>1.0</scale>
        <Icon>
            <href>http://maps.google.com/mapfiles/kml/shapes/truck.png</href>
        </Icon>
    </IconStyle>
    <LabelStyle>
        <color>ff00ff00</color>
        <scale>1.0</scale>
    </LabelStyle>
</Style>
<!-- Estilo para cliente VIP -->
<Style id="clienteVip">
    <IconStyle>
        <color>ffff00ff</color>
        <scale>1.3</scale>
        <Icon>
            <href>http://maps.google.com/mapfiles/kml/shapes/star.png</href>
        </Icon>
    </IconStyle>
    <LabelStyle>
        <color>ffff00ff</color>
        <scale>1.0</scale>
    </LabelStyle>
</Style>
    
 <!-- Estilo para la ruta -->
<Style id="rutaLinea">
    <LineStyle>
        <color>ff808000</color>
        <width>4</width>
    </LineStyle>
</Style><Placemark>
    <name>DEPÓSITO - DEPOSITO</name>
    <description><![CDATA[<h3>?? PUNTO DE PARTIDA</h3><p><strong>Repartidor:</strong> Oficina</p><p><strong>Fecha:</strong> 04-09-2025</p><p><em>?? INICIAR RECORRIDO AQUÍ</em></p>]]></description>
    <styleUrl>#deposito</styleUrl>
    <Point>
        <coordinates>-62.97423400,-40.79548400,0</coordinates>
    </Point>
</Placemark>
<Placemark>
    <name>1: (3039) IPUCHE- JORGE PAULO</name>
    <description><![CDATA[<h3>?? ENTREGA #1</h3><p><b>Cliente:</b> (3039) IPUCHE- JORGE PAULO</p><p><b>Repartidor:</b> Oficina</p>]]></description>
    <styleUrl>#cliente</styleUrl>
    <Point>
        <coordinates>-62.97423400,-40.79548400,0</coordinates>
    </Point>
</Placemark>
<Placemark>
    <name>2: (3039) IPUCHE- JORGE PAULO</name>
    <description><![CDATA[<h3>?? ENTREGA #2</h3><p><b>Cliente:</b> (3039) IPUCHE- JORGE PAULO</p><p><b>Repartidor:</b> Oficina</p>]]></description>
    <styleUrl>#cliente</styleUrl>
    <Point>
        <coordinates>-62.97423400,-40.79548400,0</coordinates>
    </Point>
</Placemark>
<Placemark>
    <name>3: (3291) MARIN- BLANCA AZUCENA</name>
    <description><![CDATA[<h3>?? ENTREGA #3</h3><p><b>Cliente:</b> (3291) MARIN- BLANCA AZUCENA</p><p><b>Repartidor:</b> Oficina</p>]]></description>
    <styleUrl>#cliente</styleUrl>
    <Point>
        <coordinates>-62.97522500,-40.79819300,0</coordinates>
    </Point>
</Placemark>
<Placemark>
    <name>4: (3291) MARIN- BLANCA AZUCENA</name>
    <description><![CDATA[<h3>?? ENTREGA #4</h3><p><b>Cliente:</b> (3291) MARIN- BLANCA AZUCENA</p><p><b>Repartidor:</b> Oficina</p>]]></description>
    <styleUrl>#cliente</styleUrl>
    <Point>
        <coordinates>-62.97522500,-40.79819300,0</coordinates>
    </Point>
</Placemark>
<Placemark>
    <name>5: (1028) AIZA- OSCAR</name>
    <description><![CDATA[<h3>?? ENTREGA #5</h3><p><b>Cliente:</b> (1028) AIZA- OSCAR</p><p><b>Repartidor:</b> Oficina</p>]]></description>
    <styleUrl>#cliente</styleUrl>
    <Point>
        <coordinates>-62.97545300,-40.79826400,0</coordinates>
    </Point>
</Placemark>
<Placemark>
    <name>6: (1028) AIZA- OSCAR</name>
    <description><![CDATA[<h3>?? ENTREGA #6</h3><p><b>Cliente:</b> (1028) AIZA- OSCAR</p><p><b>Repartidor:</b> Oficina</p>]]></description>
    <styleUrl>#cliente</styleUrl>
    <Point>
        <coordinates>-62.97545300,-40.79826400,0</coordinates>
    </Point>
</Placemark>
<Placemark>
    <name>7: (2875) URQUIZA- YESICA MARIEL</name>
    <description><![CDATA[<h3>?? ENTREGA #7</h3><p><b>Cliente:</b> (2875) URQUIZA- YESICA MARIEL</p><p><b>Repartidor:</b> Oficina</p>]]></description>
    <styleUrl>#cliente</styleUrl>
    <Point>
        <coordinates>-62.97822900,-40.79914300,0</coordinates>
    </Point>
</Placemark>
<Placemark>
    <name>8: (2875) URQUIZA- YESICA MARIEL</name>
    <description><![CDATA[<h3>?? ENTREGA #8</h3><p><b>Cliente:</b> (2875) URQUIZA- YESICA MARIEL</p><p><b>Repartidor:</b> Oficina</p>]]></description>
    <styleUrl>#cliente</styleUrl>
    <Point>
        <coordinates>-62.97822900,-40.79914300,0</coordinates>
    </Point>
</Placemark>
<Placemark>
    <name>9: (3394) ALBORNOS FERNANDEZ- NEBER GUALBERTO</name>
    <description><![CDATA[<h3>?? ENTREGA #9</h3><p><b>Cliente:</b> (3394) ALBORNOS FERNANDEZ- NEBER GUALBERTO</p><p><b>Repartidor:</b> Oficina</p>]]></description>
    <styleUrl>#cliente</styleUrl>
    <Point>
        <coordinates>-62.97555800,-40.80296500,0</coordinates>
    </Point>
</Placemark>
<Placemark>
    <name>10: (3394) ALBORNOS FERNANDEZ- NEBER GUALBERTO</name>
    <description><![CDATA[<h3>?? ENTREGA #10</h3><p><b>Cliente:</b> (3394) ALBORNOS FERNANDEZ- NEBER GUALBERTO</p><p><b>Repartidor:</b> Oficina</p>]]></description>
    <styleUrl>#cliente</styleUrl>
    <Point>
        <coordinates>-62.97555800,-40.80296500,0</coordinates>
    </Point>
</Placemark>
<Placemark>
    <name>11: (4030) GARCIA VIQUE- CARLOS DANIEL</name>
    <description><![CDATA[<h3>?? ENTREGA #11</h3><p><b>Cliente:</b> (4030) GARCIA VIQUE- CARLOS DANIEL</p><p><b>Repartidor:</b> Oficina</p>]]></description>
    <styleUrl>#cliente</styleUrl>
    <Point>
        <coordinates>-62.98076000,-40.80328800,0</coordinates>
    </Point>
</Placemark>
<Placemark>
    <name>12: (4130) GARECA HERNAN</name>
    <description><![CDATA[<h3>?? ENTREGA #12</h3><p><b>Cliente:</b> (4130) GARECA HERNAN</p><p><b>Repartidor:</b> Oficina</p>]]></description>
    <styleUrl>#cliente</styleUrl>
    <Point>
        <coordinates>-62.98076000,-40.80328800,0</coordinates>
    </Point>
</Placemark>
<Placemark>
    <name>13: (4030) GARCIA VIQUE- CARLOS DANIEL</name>
    <description><![CDATA[<h3>?? ENTREGA #13</h3><p><b>Cliente:</b> (4030) GARCIA VIQUE- CARLOS DANIEL</p><p><b>Repartidor:</b> Oficina</p>]]></description>
    <styleUrl>#cliente</styleUrl>
    <Point>
        <coordinates>-62.98076000,-40.80328800,0</coordinates>
    </Point>
</Placemark>
<Placemark>
    <name>14: (4130) GARECA HERNAN</name>
    <description><![CDATA[<h3>?? ENTREGA #14</h3><p><b>Cliente:</b> (4130) GARECA HERNAN</p><p><b>Repartidor:</b> Oficina</p>]]></description>
    <styleUrl>#cliente</styleUrl>
    <Point>
        <coordinates>-62.98076000,-40.80328800,0</coordinates>
    </Point>
</Placemark>
<Placemark>
    <name>15: (3060) ELBERT- GABRIELA CAROLINA</name>
    <description><![CDATA[<h3>?? ENTREGA #15</h3><p><b>Cliente:</b> (3060) ELBERT- GABRIELA CAROLINA</p><p><b>Repartidor:</b> Oficina</p>]]></description>
    <styleUrl>#cliente</styleUrl>
    <Point>
        <coordinates>-62.98323900,-40.80455600,0</coordinates>
    </Point>
</Placemark>
<Placemark>
    <name>16: (3060) ELBERT- GABRIELA CAROLINA</name>
    <description><![CDATA[<h3>?? ENTREGA #16</h3><p><b>Cliente:</b> (3060) ELBERT- GABRIELA CAROLINA</p><p><b>Repartidor:</b> Oficina</p>]]></description>
    <styleUrl>#cliente</styleUrl>
    <Point>
        <coordinates>-62.98323900,-40.80455600,0</coordinates>
    </Point>
</Placemark>
<Placemark>
    <name>17: (1530) HUMACATA APARICIO-NAHUEL DELIO</name>
    <description><![CDATA[<h3>?? ENTREGA #17</h3><p><b>Cliente:</b> (1530) HUMACATA APARICIO-NAHUEL DELIO</p><p><b>Repartidor:</b> Oficina</p>]]></description>
    <styleUrl>#cliente</styleUrl>
    <Point>
        <coordinates>-62.97836000,-40.80676300,0</coordinates>
    </Point>
</Placemark>
<Placemark>
    <name>18: (1530) HUMACATA APARICIO-NAHUEL DELIO</name>
    <description><![CDATA[<h3>?? ENTREGA #18</h3><p><b>Cliente:</b> (1530) HUMACATA APARICIO-NAHUEL DELIO</p><p><b>Repartidor:</b> Oficina</p>]]></description>
    <styleUrl>#cliente</styleUrl>
    <Point>
        <coordinates>-62.97836000,-40.80676300,0</coordinates>
    </Point>
</Placemark>
<Placemark>
    <name>19: (4191) ALBORNOZ FERNANDEZ-ELIANA ELISABET</name>
    <description><![CDATA[<h3>?? ENTREGA #19</h3><p><b>Cliente:</b> (4191) ALBORNOZ FERNANDEZ-ELIANA ELISABET</p><p><b>Repartidor:</b> Oficina</p>]]></description>
    <styleUrl>#cliente</styleUrl>
    <Point>
        <coordinates>-62.97802100,-40.80646900,0</coordinates>
    </Point>
</Placemark>
<Placemark>
    <name>20: (4191) ALBORNOZ FERNANDEZ-ELIANA ELISABET</name>
    <description><![CDATA[<h3>?? ENTREGA #20</h3><p><b>Cliente:</b> (4191) ALBORNOZ FERNANDEZ-ELIANA ELISABET</p><p><b>Repartidor:</b> Oficina</p>]]></description>
    <styleUrl>#cliente</styleUrl>
    <Point>
        <coordinates>-62.97802100,-40.80646900,0</coordinates>
    </Point>
</Placemark>
<Placemark>
    <name>21: (3173) MENDOZA- RENE URVANO</name>
    <description><![CDATA[<h3>?? ENTREGA #21</h3><p><b>Cliente:</b> (3173) MENDOZA- RENE URVANO</p><p><b>Repartidor:</b> Oficina</p>]]></description>
    <styleUrl>#cliente</styleUrl>
    <Point>
        <coordinates>-62.97703400,-40.80928100,0</coordinates>
    </Point>
</Placemark>
<Placemark>
    <name>22: (3173) MENDOZA- RENE URVANO</name>
    <description><![CDATA[<h3>?? ENTREGA #22</h3><p><b>Cliente:</b> (3173) MENDOZA- RENE URVANO</p><p><b>Repartidor:</b> Oficina</p>]]></description>
    <styleUrl>#cliente</styleUrl>
    <Point>
        <coordinates>-62.97703400,-40.80928100,0</coordinates>
    </Point>
</Placemark>
<Placemark>
    <name>23: (4079) FERREYRA- BRAIAN ALEXANDER</name>
    <description><![CDATA[<h3>?? ENTREGA #23</h3><p><b>Cliente:</b> (4079) FERREYRA- BRAIAN ALEXANDER</p><p><b>Repartidor:</b> Oficina</p>]]></description>
    <styleUrl>#cliente</styleUrl>
    <Point>
        <coordinates>-62.97598400,-40.80956800,0</coordinates>
    </Point>
</Placemark>
<Placemark>
    <name>24: (4079) FERREYRA- BRAIAN ALEXANDER</name>
    <description><![CDATA[<h3>?? ENTREGA #24</h3><p><b>Cliente:</b> (4079) FERREYRA- BRAIAN ALEXANDER</p><p><b>Repartidor:</b> Oficina</p>]]></description>
    <styleUrl>#cliente</styleUrl>
    <Point>
        <coordinates>-62.97598400,-40.80956800,0</coordinates>
    </Point>
</Placemark>
<Placemark>
    <name>25: (3310) RISCO JOHANNA ELIZABETH Y CECCHINI GIACO</name>
    <description><![CDATA[<h3>?? ENTREGA #25</h3><p><b>Cliente:</b> (3310) RISCO JOHANNA ELIZABETH Y CECCHINI GIACO</p><p><b>Repartidor:</b> Oficina</p>]]></description>
    <styleUrl>#cliente</styleUrl>
    <Point>
        <coordinates>-62.97570900,-40.80964600,0</coordinates>
    </Point>
</Placemark>
<Placemark>
    <name>26: (3310) RISCO JOHANNA ELIZABETH Y CECCHINI GIACO</name>
    <description><![CDATA[<h3>?? ENTREGA #26</h3><p><b>Cliente:</b> (3310) RISCO JOHANNA ELIZABETH Y CECCHINI GIACO</p><p><b>Repartidor:</b> Oficina</p>]]></description>
    <styleUrl>#cliente</styleUrl>
    <Point>
        <coordinates>-62.97570900,-40.80964600,0</coordinates>
    </Point>
</Placemark>
<Placemark>
    <name>27: (3227) DOMINGUEZ- FABRICIO GASTON</name>
    <description><![CDATA[<h3>?? ENTREGA #27</h3><p><b>Cliente:</b> (3227) DOMINGUEZ- FABRICIO GASTON</p><p><b>Repartidor:</b> Oficina</p>]]></description>
    <styleUrl>#cliente</styleUrl>
    <Point>
        <coordinates>-62.96824400,-40.79609800,0</coordinates>
    </Point>
</Placemark>
<Placemark>
    <name>28: (3227) DOMINGUEZ- FABRICIO GASTON</name>
    <description><![CDATA[<h3>?? ENTREGA #28</h3><p><b>Cliente:</b> (3227) DOMINGUEZ- FABRICIO GASTON</p><p><b>Repartidor:</b> Oficina</p>]]></description>
    <styleUrl>#cliente</styleUrl>
    <Point>
        <coordinates>-62.96824400,-40.79609800,0</coordinates>
    </Point>
</Placemark>
<Placemark>
    <name>29: (3227) DOMINGUEZ- FABRICIO GASTON</name>
    <description><![CDATA[<h3>?? ENTREGA #29</h3><p><b>Cliente:</b> (3227) DOMINGUEZ- FABRICIO GASTON</p><p><b>Repartidor:</b> Oficina</p>]]></description>
    <styleUrl>#cliente</styleUrl>
    <Point>
        <coordinates>-62.96824400,-40.79609800,0</coordinates>
    </Point>
</Placemark>
<Placemark>
    <name>30: (1805) MANSILLA- MARTA</name>
    <description><![CDATA[<h3>?? ENTREGA #30</h3><p><b>Cliente:</b> (1805) MANSILLA- MARTA</p><p><b>Repartidor:</b> Oficina</p>]]></description>
    <styleUrl>#cliente</styleUrl>
    <Point>
        <coordinates>-62.99323100,-40.80268000,0</coordinates>
    </Point>
</Placemark>
<Placemark>
    <name>31: (1805) MANSILLA- MARTA</name>
    <description><![CDATA[<h3>?? ENTREGA #31</h3><p><b>Cliente:</b> (1805) MANSILLA- MARTA</p><p><b>Repartidor:</b> Oficina</p>]]></description>
    <styleUrl>#cliente</styleUrl>
    <Point>
        <coordinates>-62.99323100,-40.80268000,0</coordinates>
    </Point>
</Placemark>
<Placemark>
    <name>32: (2526) ALCALDE- FEDERICO</name>
    <description><![CDATA[<h3>?? ENTREGA #32</h3><p><b>Cliente:</b> (2526) ALCALDE- FEDERICO</p><p><b>Repartidor:</b> Oficina</p>]]></description>
    <styleUrl>#cliente</styleUrl>
    <Point>
        <coordinates>-62.99753500,-40.77976900,0</coordinates>
    </Point>
</Placemark>
<Placemark>
    <name>33: (2526) ALCALDE- FEDERICO</name>
    <description><![CDATA[<h3>?? ENTREGA #33</h3><p><b>Cliente:</b> (2526) ALCALDE- FEDERICO</p><p><b>Repartidor:</b> Oficina</p>]]></description>
    <styleUrl>#cliente</styleUrl>
    <Point>
        <coordinates>-62.99753500,-40.77976900,0</coordinates>
    </Point>
</Placemark>
<Placemark>
    <name>Ruta Optimizada</name>
    <description>Recorrido optimizado con time windows</description>
    <styleUrl>#rutaLinea</styleUrl>
    <LineString>
        <tessellate>1</tessellate>
        <coordinates>-62.97423400,-40.79548400,0 -62.97423400,-40.79548400,0 -62.97423400,-40.79548400,0 -62.97522500,-40.79819300,0 -62.97522500,-40.79819300,0 -62.97545300,-40.79826400,0 -62.97545300,-40.79826400,0 -62.97822900,-40.79914300,0 -62.97822900,-40.79914300,0 -62.97555800,-40.80296500,0 -62.97555800,-40.80296500,0 -62.98076000,-40.80328800,0 -62.98076000,-40.80328800,0 -62.98076000,-40.80328800,0 -62.98076000,-40.80328800,0 -62.98323900,-40.80455600,0 -62.98323900,-40.80455600,0 -62.97836000,-40.80676300,0 -62.97836000,-40.80676300,0 -62.97802100,-40.80646900,0 -62.97802100,-40.80646900,0 -62.97703400,-40.80928100,0 -62.97703400,-40.80928100,0 -62.97598400,-40.80956800,0 -62.97598400,-40.80956800,0 -62.97570900,-40.80964600,0 -62.97570900,-40.80964600,0 -62.96824400,-40.79609800,0 -62.96824400,-40.79609800,0 -62.96824400,-40.79609800,0 -62.99323100,-40.80268000,0 -62.99323100,-40.80268000,0 -62.99753500,-40.77976900,0 -62.99753500,-40.77976900,0 -62.97423400,-40.79548400,0</coordinates>
    </LineString>
</Placemark>
</Document>
</kml>